[
  {
    "OBJECT_NAME": "STARLINK-34258",
    "OBJECT_ID": "25117J",
    "EPOCH": "2025-11-11T03:52:03.081792",
    "MEAN_MOTION": 15.30241967,
    "ECCENTRICITY": 5.67e-05,
    "INCLINATION": 53.1599,
    "RA_OF_ASC_NODE": 229.793,
    "ARG_OF_PERICENTER": 117.9736,
    "MEAN_ANOMALY": 242.1322,
    "EPHEMERIS_TYPE": 0,
    "CLASSIFICATION_TYPE": "U",
    "NORAD_CAT_ID": 64211,
    "ELEMENT_SET_NO": 999,
    "REV_AT_EPOCH": 2638,
    "BSTAR": 0.0010869,
    "MEAN_MOTION_DOT": 0.00032012,
    "MEAN_MOTION_DDOT": 0.0,
    "TLE_LINE1": "1 64211U 25117J   25315.16114678  .00032012  00000+0  10869-2 0  9993",
    "TLE_LINE2": "2 64211  53.1599 229.7930 0000567 117.9736 242.1322 15.30241967 26385",
    "COMMENT": "Grouped by shell and plane from TLE"
  },
  {
    "OBJECT_NAME": "STARLINK-34284",
    "OBJECT_ID": "25117K",
    "EPOCH": "2025-11-11T04:01:10.036128",
    "MEAN_MOTION": 15.30242882,
    "ECCENTRICITY": 6.48e-05,
    "INCLINATION": 53.1586,
    "RA_OF_ASC_NODE": 229.8308,
    "ARG_OF_PERICENTER": 73.1983,
    "MEAN_ANOMALY": 286.9089,
    "EPHEMERIS_TYPE": 0,
    "CLASSIFICATION_TYPE": "U",
    "NORAD_CAT_ID": 64212,
    "ELEMENT_SET_NO": 999,
    "REV_AT_EPOCH": 2638,
    "BSTAR": 0.0007056400000000001,
    "MEAN_MOTION_DOT": 0.00020626,
    "MEAN_MOTION_DDOT": 0.0,
    "TLE_LINE1": "1 64212U 25117K   25315.16747727  .00020626  00000+0  70564-3 0  9998",
    "TLE_LINE2": "2 64212  53.1586 229.8308 0000648  73.1983 286.9089 15.30242882 26382",
    "COMMENT": "Grouped by shell and plane from TLE"
  },
  {
    "OBJECT_NAME": "STARLINK-34296",
    "OBJECT_ID": "25117P",
    "EPOCH": "2025-11-11T05:58:00.806880",
    "MEAN_MOTION": 15.30231937,
    "ECCENTRICITY": 0.0001466,
    "INCLINATION": 53.1576,
    "RA_OF_ASC_NODE": 229.6227,
    "ARG_OF_PERICENTER": 89.934,
    "MEAN_ANOMALY": 270.1829,
    "EPHEMERIS_TYPE": 0,
    "CLASSIFICATION_TYPE": "U",
    "NORAD_CAT_ID": 64216,
    "ELEMENT_SET_NO": 999,
    "REV_AT_EPOCH": 2642,
    "BSTAR": 0.0020080000000000002,
    "MEAN_MOTION_DOT": 0.00059651,
    "MEAN_MOTION_DDOT": 0.0,
    "TLE_LINE1": "1 64216U 25117P   25315.24862045  .00059651  00000+0  20080-2 0  9999",
    "TLE_LINE2": "2 64216  53.1576 229.6227 0001466  89.9340 270.1829 15.30231937 26425",
    "COMMENT": "Grouped by shell and plane from TLE"
  },
  {
    "OBJECT_NAME": "STARLINK-34300",
    "OBJECT_ID": "25117R",
    "EPOCH": "2025-11-11T04:10:17.221152",
    "MEAN_MOTION": 15.3022123,
    "ECCENTRICITY": 0.0001392,
    "INCLINATION": 53.1583,
    "RA_OF_ASC_NODE": 229.8707,
    "ARG_OF_PERICENTER": 85.3104,
    "MEAN_ANOMALY": 274.8055,
    "EPHEMERIS_TYPE": 0,
    "CLASSIFICATION_TYPE": "U",
    "NORAD_CAT_ID": 64218,
    "ELEMENT_SET_NO": 999,
    "REV_AT_EPOCH": 2638,
    "BSTAR": 0.0017172,
    "MEAN_MOTION_DOT": 0.0005088,
    "MEAN_MOTION_DDOT": 0.0,
    "TLE_LINE1": "1 64218U 25117R   25315.17381043  .00050880  00000+0  17172-2 0  9990",
    "TLE_LINE2": "2 64218  53.1583 229.8707 0001392  85.3104 274.8055 15.30221230 26388",
    "COMMENT": "Grouped by shell and plane from TLE"
  },
  {
    "OBJECT_NAME": "STARLINK-34323",
    "OBJECT_ID": "25117S",
    "EPOCH": "2025-11-11T04:17:53.195424",
    "MEAN_MOTION": 15.30214285,
    "ECCENTRICITY": 0.0001229,
    "INCLINATION": 53.1586,
    "RA_OF_ASC_NODE": 229.9024,
    "ARG_OF_PERICENTER": 90.5561,
    "MEAN_ANOMALY": 269.5581,
    "EPHEMERIS_TYPE": 0,
    "CLASSIFICATION_TYPE": "U",
    "NORAD_CAT_ID": 64219,
    "ELEMENT_SET_NO": 999,
    "REV_AT_EPOCH": 2641,
    "BSTAR": 0.0020001,
    "MEAN_MOTION_DOT": 0.0005938,
    "MEAN_MOTION_DDOT": 0.0,
    "TLE_LINE1": "1 64219U 25117S   25315.17908791  .00059380  00000+0  20001-2 0  9995",
    "TLE_LINE2": "2 64219  53.1586 229.9024 0001229  90.5561 269.5581 15.30214285 26410",
    "COMMENT": "Grouped by shell and plane from TLE"
  },
  {
    "OBJECT_NAME": "STARLINK-34328",
    "OBJECT_ID": "25117T",
    "EPOCH": "2025-11-11T04:39:10.657440",
    "MEAN_MOTION": 15.30149532,
    "ECCENTRICITY": 0.0001592,
    "INCLINATION": 53.1563,
    "RA_OF_ASC_NODE": 229.9924,
    "ARG_OF_PERICENTER": 78.5471,
    "MEAN_ANOMALY": 281.5708,
    "EPHEMERIS_TYPE": 0,
    "CLASSIFICATION_TYPE": "U",
    "NORAD_CAT_ID": 64220,
    "ELEMENT_SET_NO": 999,
    "REV_AT_EPOCH": 2638,
    "BSTAR": 0.0013050000000000002,
    "MEAN_MOTION_DOT": 0.00038431,
    "MEAN_MOTION_DDOT": 0.0,
    "TLE_LINE1": "1 64220U 25117T   25315.19387335  .00038431  00000+0  13050-2 0  9994",
    "TLE_LINE2": "2 64220  53.1563 229.9924 0001592  78.5471 281.5708 15.30149532 26388",
    "COMMENT": "Grouped by shell and plane from TLE"
  },
  {
    "OBJECT_NAME": "STARLINK-34304",
    "OBJECT_ID": "25117X",
    "EPOCH": "2025-11-11T04:28:31.333728",
    "MEAN_MOTION": 15.30214726,
    "ECCENTRICITY": 0.0001331,
    "INCLINATION": 53.1572,
    "RA_OF_ASC_NODE": 229.9445,
    "ARG_OF_PERICENTER": 105.4977,
    "MEAN_ANOMALY": 254.6171,
    "EPHEMERIS_TYPE": 0,
    "CLASSIFICATION_TYPE": "U",
    "NORAD_CAT_ID": 64224,
    "ELEMENT_SET_NO": 999,
    "REV_AT_EPOCH": 2641,
    "BSTAR": 0.0018257000000000002,
    "MEAN_MOTION_DOT": 0.00054134,
    "MEAN_MOTION_DDOT": 0.0,
    "TLE_LINE1": "1 64224U 25117X   25315.18647377  .00054134  00000+0  18257-2 0  9994",
    "TLE_LINE2": "2 64224  53.1572 229.9445 0001331 105.4977 254.6171 15.30214726 26419",
    "COMMENT": "Grouped by shell and plane from TLE"
  },
  {
    "OBJECT_NAME": "STARLINK-34330",
    "OBJECT_ID": "25117AA",
    "EPOCH": "2025-11-11T04:34:35.870016",
    "MEAN_MOTION": 15.30225546,
    "ECCENTRICITY": 9.08e-05,
    "INCLINATION": 53.156,
    "RA_OF_ASC_NODE": 229.9681,
    "ARG_OF_PERICENTER": 89.4184,
    "MEAN_ANOMALY": 270.6921,
    "EPHEMERIS_TYPE": 0,
    "CLASSIFICATION_TYPE": "U",
    "NORAD_CAT_ID": 64227,
    "ELEMENT_SET_NO": 999,
    "REV_AT_EPOCH": 2638,
    "BSTAR": 0.0012549,
    "MEAN_MOTION_DOT": 0.00037023,
    "MEAN_MOTION_DDOT": 0.0,
    "TLE_LINE1": "1 64227U 25117AA  25315.19069294  .00037023  00000+0  12549-2 0  9990",
    "TLE_LINE2": "2 64227  53.1560 229.9681 0000908  89.4184 270.6921 15.30225546 26380",
    "COMMENT": "Grouped by shell and plane from TLE"
  },
  {
    "OBJECT_NAME": "STARLINK-34167",
    "OBJECT_ID": "25117AB",
    "EPOCH": "2025-11-11T03:56:36.288096",
    "MEAN_MOTION": 15.30159898,
    "ECCENTRICITY": 0.0001444,
    "INCLINATION": 53.1601,
    "RA_OF_ASC_NODE": 229.8055,
    "ARG_OF_PERICENTER": 73.2253,
    "MEAN_ANOMALY": 286.8906,
    "EPHEMERIS_TYPE": 0,
    "CLASSIFICATION_TYPE": "U",
    "NORAD_CAT_ID": 64228,
    "ELEMENT_SET_NO": 999,
    "REV_AT_EPOCH": 2641,
    "BSTAR": 0.001466,
    "MEAN_MOTION_DOT": 0.00043258,
    "MEAN_MOTION_DDOT": 0.0,
    "TLE_LINE1": "1 64228U 25117AB  25315.16430889  .00043258  00000+0  14660-2 0  9993",
    "TLE_LINE2": "2 64228  53.1601 229.8055 0001444  73.2253 286.8906 15.30159898 26417",
    "COMMENT": "Grouped by shell and plane from TLE"
  }
]